NORAD_CAT_ID,OBJECT_NAME,OBJECT_TYPE,EPOCH,MEAN_MOTION,ECCENTRICITY,INCLINATION,RA_OF_ASC_NODE,ARG_OF_PERICENTER,MEAN_ANOMALY,BSTAR,MEAN_MOTION_DOT,MEAN_MOTION_DDOT,TLE_LINE0,TLE_LINE1,TLE_LINE2,SEMIMAJOR_AXIS,PERIOD,APOGEE,PERIGEE,DECAYED
51751.0,STARLINK-3506,PAYLOAD,2022-03-07 22:00:00,15.73118692,0.0001161,53.2186,68.6757,55.4252,244.6753,0.00070058,0.00098516,0.0,0 STARLINK-3506,1 51751U 22016AP  22066.91667824  .00098516  00000-0  70058-3 0  9991,2 51751  53.2186  68.6757 0001161  55.4252 244.6753 15.73118692  2946,6728.127,91.538,350.773,349.211,0.0
51751.0,STARLINK-3506,PAYLOAD,2022-03-08 14:00:01,15.73269567,0.000143,53.218,65.3788,52.5708,65.3315,-0.00051275,-0.00072181,0.0,0 STARLINK-3506,1 51751U 22016AP  22067.58334491 -.00072181  00000-0 -51275-3 0  9998,2 51751  53.2180  65.3788 0001430  52.5708  65.3315 15.73269567  3627,6727.696999999999,91.529,350.524,348.6,0.0
51751.0,STARLINK-3506,PAYLOAD,2022-03-08 22:00:00,15.73208173,0.0001259,53.2182,63.7276,65.9692,140.9108,-8.253899999999999e-06,-1.778e-05,0.0,0 STARLINK-3506,1 51751U 22016AP  22067.91667824 -.00001778  00000-0 -82539-5 0  9997,2 51751  53.2182  63.7276 0001259  65.9692 140.9108 15.73208173  3101,6727.871999999999,91.533,350.584,348.89,0.0
51751.0,STARLINK-3506,PAYLOAD,2022-03-09 06:00:00,15.73204005,0.0001239,53.2183,62.0793,54.2712,241.5516,-0.00060052,-0.00084075,0.0,0 STARLINK-3506,1 51751U 22016AP  22068.25001157 -.00084075  00000-0 -60052-3 0  9991,2 51751  53.2183  62.0793 0001239  54.2712 241.5516 15.73204005  3730,6727.884,91.533,350.582,348.915,0.0
51751.0,STARLINK-3506,PAYLOAD,2022-03-09 14:00:01,15.73159936,0.0001104,53.2186,60.4307,44.7915,339.9189,0.0001926,0.00026449,0.0,0 STARLINK-3506,1 51751U 22016AP  22068.58334491  .00026449  00000-0  19260-3 0  9991,2 51751  53.2186  60.4307 0001104  44.7915 339.9189 15.73159936  3208,6728.009,91.536,350.617,349.13199999999995,0.0
51751.0,STARLINK-3506,PAYLOAD,2022-03-09 16:00:00,15.73168092,0.0001047,53.2188,60.0177,48.512,88.4147,0.00014091,0.00019174,0.0,0 STARLINK-3506,1 51751U 22016AP  22068.66667824  .00019174  00000-0  14091-3 0  9993,2 51751  53.2188  60.0177 0001047  48.5120  88.4147 15.73168092  3794,6727.986,91.535,350.556,349.147,0.0
51751.0,STARLINK-3506,PAYLOAD,2022-03-09 22:00:01,15.73169365,0.0001029,53.2188,58.7796,58.6312,55.0329,0.0006111,0.00085911,0.0,0 STARLINK-3506,1 51751U 22016AP  22068.91668981  .00085911  00000-0  61110-3 0  9992,2 51751  53.2188  58.7796 0001029  58.6312  55.0329 15.73169365  3268,6727.983,91.535,350.54,349.155,0.0
51751.0,STARLINK-3506,PAYLOAD,2022-03-10 06:00:00,15.73240372,0.0001286999999999,53.2185,57.1324,52.9662,149.5517,-0.00020977,-0.00030006,0.0,0 STARLINK-3506,1 51751U 22016AP  22069.25001157 -.00030006  00000-0 -20977-3 0  9999,2 51751  53.2185  57.1324 0001287  52.9662 149.5517 15.73240372  3891,6727.78,91.531,350.511,348.779,0.0
51751.0,STARLINK-3506,PAYLOAD,2022-03-10 14:00:01,15.73213676,0.0001361999999999,53.218,55.4824,57.7691,233.7174,6.852300000000001e-05,9.012e-05,0.0,0 STARLINK-3506,1 51751U 22016AP  22069.58334491  .00009012  00000-0  68523-4 0  9996,2 51751  53.2180  55.4824 0001362  57.7691 233.7174 15.73213676  3365,6727.856,91.532,350.63800000000015,348.805,0.0
51751.0,STARLINK-3506,PAYLOAD,2022-03-10 20:00:01,15.73224406,0.0001324,53.2181,54.2439,70.1198,198.0853,7.2097e-05,9.52e-05,0.0,0 STARLINK-3506,1 51751U 22016AP  22069.83334491  .00009520  00000-0  72097-4 0  9999,2 51751  53.2181  54.2439 0001324  70.1198 198.0853 15.73224406  3982,6727.826,91.532,350.581,348.8,0.0
51751.0,STARLINK-3506,PAYLOAD,2022-03-10 22:00:01,15.73235706,0.0001391,53.2183,53.8314,72.5955,307.9127,-7.7842e-05,-0.00011547,0.0,0 STARLINK-3506,1 51751U 22016AP  22069.91668981 -.00011547  00000-0 -77842-4 0  9999,2 51751  53.2183  53.8314 0001391  72.5955 307.9127 15.73235706  3421,6727.793000000002,91.531,350.594,348.723,0.0
51751.0,STARLINK-3506,PAYLOAD,2022-03-11 12:00:00,15.73267973,0.0001371,53.2183,50.9469,61.1668,24.983,-0.00017145,-0.00024682,0.0,0 STARLINK-3506,1 51751U 22016AP  22070.50001157 -.00024682  00000-0 -17145-3 0  9995,2 51751  53.2183  50.9469 0001371  61.1668  24.9830 15.73267973  3511,6727.701,91.529,350.48900000000015,348.644,0.0
51751.0,STARLINK-3506,PAYLOAD,2022-03-11 22:00:00,15.72705198,0.0001662,53.2176,48.8743,71.4307,215.9878,0.0049707,0.00746829,0.0,0 STARLINK-3506,1 51751U 22016AP  22070.91667824  .00746829  00000-0  49707-2 0  9999,2 51751  53.2176  48.8743 0001662  71.4307 215.9878 15.72705198  4151,6729.306,91.562,352.29,350.05300000000005,0.0
51751.0,STARLINK-3506,PAYLOAD,2022-03-12 14:00:01,15.73174488,0.0001019,53.2178,45.5853,62.3165,42.909,0.00028991,0.00040217,0.0,0 STARLINK-3506,1 51751U 22016AP  22071.58334491  .00040217  00000-0  28991-3 0  9995,2 51751  53.2178  45.5853 0001019  62.3165  42.9090 15.73174488  4254,6727.968000000003,91.535,350.51800000000014,349.147,0.0
51751.0,STARLINK-3506,PAYLOAD,2022-03-12 22:00:00,15.73184692,8.950000000000001e-05,53.2177,43.9337,72.6775,121.4961,0.00039222,0.00054748,0.0,0 STARLINK-3506,1 51751U 22016AP  22071.91667824  .00054748  00000-0  39222-3 0  9994,2 51751  53.2177  43.9337 0000895  72.6775 121.4961 15.73184692  3701,6727.939,91.534,350.406,349.202,0.0
51751.0,STARLINK-3506,PAYLOAD,2022-03-13 14:00:01,15.73223072,0.0001187,53.2184,40.6369,68.6693,303.3406,-0.00054067,-0.00075891,0.0,0 STARLINK-3506,1 51751U 22016AP  22072.58334491 -.00075891  00000-0 -54067-3 0  9997,2 51751  53.2184  40.6369 0001187  68.6693 303.3406 15.73223072  4417,6727.829000000002,91.532,350.49300000000005,348.896,0.0
51751.0,STARLINK-3506,PAYLOAD,2022-03-13 22:00:01,15.73178833,0.0001325,53.2187,38.9864,78.5184,22.4552,0.00016371,0.00022396,0.0,0 STARLINK-3506,1 51751U 22016AP  22072.91668981  .00022396  00000-0  16371-3 0  9994,2 51751  53.2187  38.9864 0001325  78.5184  22.4552 15.73178833  3716,6727.956,91.534,350.712,348.92900000000014,0.0
51751.0,STARLINK-3506,PAYLOAD,2022-03-14 04:00:00,15.73214056,0.000126,53.2183,37.7511,69.5349,8.0788,-0.00022247,-0.00031743,0.0,0 STARLINK-3506,1 51751U 22016AP  22073.16667824 -.00031743  00000-0 -22247-3 0  9994,2 51751  53.2183  37.7511 0001260  69.5349   8.0788 15.73214056  4506,6727.855,91.532,350.5680000000001,348.872,0.0
51751.0,STARLINK-3506,PAYLOAD,2022-03-14 12:00:00,15.73251092,0.0001129,53.2178,36.1011,70.2352,96.3454,0.00045122,0.00063323,0.0,0 STARLINK-3506,1 51751U 22016AP  22073.50001157  .00063323  00000-0  45122-3 0  9997,2 51751  53.2178  36.1011 0001129  70.2352  96.3454 15.73251092  4562,6727.75,91.53,350.374,348.855,0.0
51751.0,STARLINK-3506,PAYLOAD,2022-03-14 14:00:01,15.73264931,0.000111,53.2179,35.6881,75.7325,203.1606,0.00045695,0.0006417999999999,0.0,0 STARLINK-3506,1 51751U 22016AP  22073.58335648  .00064180  00000-0  45695-3 0  9997,2 51751  53.2179  35.6881 0001110  75.7325 203.1606 15.73264931  3698,6727.71,91.529,350.32199999999995,348.82800000000015,0.0
51751.0,STARLINK-3506,PAYLOAD,2022-03-14 20:00:01,15.73198714,0.0001311,53.218,34.4499,84.53299999999999,171.0175,1.9538e-05,2.123e-05,0.0,0 STARLINK-3506,1 51751U 22016AP  22073.83334491  .00002123  00000-0  19538-4 0  9997,2 51751  53.2180  34.4499 0001311  84.5330 171.0175 15.73198714  4611,6727.899,91.533,350.646,348.88199999999995,0.0
51751.0,STARLINK-3506,PAYLOAD,2022-03-15 02:00:01,15.73182933,0.0001423,53.2184,33.2123,79.7987,152.4557,0.00021408,0.00029508,0.0,0 STARLINK-3506,1 51751U 22016AP  22074.08334491  .00029508  00000-0  21408-3 0  9999,2 51751  53.2184  33.2123 0001423  79.7987 152.4557 15.73182933  3683,6727.944,91.534,350.766,348.851,0.0
51751.0,STARLINK-3506,PAYLOAD,2022-03-15 22:00:00,15.73208717,0.0001424,53.219,29.0898,85.037,189.4263,-0.00038211,-0.00053924,0.0,0 STARLINK-3506,1 51751U 22016AP  22074.91667824 -.00053924  00000-0 -38211-3 0  9991,2 51751  53.2190  29.0898 0001424  85.0370 189.4263 15.73208717  4784,6727.87,91.533,350.6930000000001,348.777,0.0
51751.0,STARLINK-3506,PAYLOAD,2022-03-16 12:00:00,15.7320509,0.0001506999999999,53.2183,26.2043,80.3529,259.6929,0.00013973,0.00019039,0.0,0 STARLINK-3506,1 51751U 22016AP  22075.50001157  .00019039  00000-0  13973-3 0  9993,2 51751  53.2183  26.2043 0001507  80.3529 259.6929 15.73205090  4873,6727.880999999999,91.533,350.76,348.732,0.0
51751.0,STARLINK-3506,PAYLOAD,2022-03-16 14:00:01,15.73202642,0.0001462,53.2185,25.7914,84.7469,7.5338,0.00028311,0.00039303,0.0,0 STARLINK-3506,1 51751U 22016AP  22075.58334491  .00039303  00000-0  28311-3 0  9999,2 51751  53.2185  25.7914 0001462  84.7469   7.5338 15.73202642  3689,6727.888000000001,91.533,350.736,348.769,0.0
51751.0,STARLINK-3506,PAYLOAD,2022-03-16 20:00:01,15.73107557,0.0001519,53.2174,24.5446,88.1565,340.8664,0.00013881,0.00018828,0.0,0 STARLINK-3506,1 51751U 22016AP  22075.83334491  .00018828  00000-0  13881-3 0  9992,2 51751  53.2174  24.5446 0001519  88.1565 340.8664 15.73107557  4924,6728.159000000002,91.539,351.046,349.00199999999984,0.0
51751.0,STARLINK-3506,PAYLOAD,2022-03-17 06:00:00,15.73203219,0.0001311,53.2191,22.4943,78.8537,191.3713,0.00041274,0.00057712,0.0,0 STARLINK-3506,1 51751U 22016AP  22076.25001157  .00057712  00000-0  41274-3 0  9991,2 51751  53.2191  22.4943 0001311  78.8537 191.3713 15.73203219  4990,6727.886,91.533,350.6330000000001,348.869,0.0
51751.0,STARLINK-3506,PAYLOAD,2022-03-17 14:00:01,15.73254551,0.0001071,53.2193,20.8429,89.4404,269.759,-0.00033965,-0.00048125,0.0,0 STARLINK-3506,1 51751U 22016AP  22076.58334491 -.00048125  00000-0 -33965-3 0  9995,2 51751  53.2193  20.8429 0001071  89.4404 269.7590 15.73254551  3703,6727.74,91.53,350.325,348.884,0.0
51751.0,STARLINK-3506,PAYLOAD,2022-03-17 22:00:00,15.73272828,0.0001141,53.2195,19.1934,89.5652,358.5952,-0.00060524,-0.0008497,0.0,0 STARLINK-3506,1 51751U 22016AP  22076.91667824 -.00084970  00000-0 -60524-3 0  9990,2 51751  53.2195  19.1934 0001141  89.5652 358.5952 15.73272828  3695,6727.688,91.529,350.32,348.785,0.0
